[{"OBJECT_NAME":"STARLINK-1816","OBJECT_ID":"2020-073AW","EPOCH":"2026-03-10T00:00:02.999808","MEAN_MOTION":15.7373021,"ECCENTRICITY":0.00013796,"INCLINATION":53.0412,"RA_OF_ASC_NODE":197.1696,"ARG_OF_PERICENTER":136.5835,"MEAN_ANOMALY":114.6456,"EPHEMERIS_TYPE":0,"CLASSIFICATION_TYPE":"U","NORAD_CAT_ID":46714,"ELEMENT_SET_NO":999,"REV_AT_EPOCH":597,"BSTAR":0.00068317035,"MEAN_MOTION_DOT":0.00098636,"MEAN_MOTION_DDOT":0},{"OBJECT_NAME":"STARLINK-11435 [DTC]","OBJECT_ID":"2025-024N","EPOCH":"2026-03-09T07:34:29.328672","MEAN_MOTION":15.70971153,"ECCENTRICITY":0.00012524,"INCLINATION":42.9992,"RA_OF_ASC_NODE":184.0769,"ARG_OF_PERICENTER":227.3644,"MEAN_ANOMALY":132.7118,"EPHEMERIS_TYPE":0,"CLASSIFICATION_TYPE":"U","NORAD_CAT_ID":62891,"ELEMENT_SET_NO":999,"REV_AT_EPOCH":6340,"BSTAR":0.0016946232,"MEAN_MOTION_DOT":0.00224193,"MEAN_MOTION_DDOT":0}]
